{"type": "FeatureCollection", "features": [ {"type": "Feature", "properties": {"norad_id": 66742, "name": "TRANSPORTER-15 CE", "group": "last-30-days", "lat": 0.924852217208642, "lon": 65.31645110075507, "alt_km": 516.6993844382405, "timestamp": "2025-12-19T18:58:40.327697+00:00", "meta": {"OBJECT_NAME": "TRANSPORTER-15 CE", "OBJECT_ID": "2025-276CE", "EPOCH": "2025-12-19T04:43:56.224992", "MEAN_MOTION": 15.17660557, "ECCENTRICITY": 0.00013271, "INCLINATION": 97.4417, "RA_OF_ASC_NODE": 64.854, "ARG_OF_PERICENTER": 207.1691, "MEAN_ANOMALY": 152.9474, "EPHEMERIS_TYPE": 0, "CLASSIFICATION_TYPE": "U", "NORAD_CAT_ID": 66742, "ELEMENT_SET_NO": 999, "REV_AT_EPOCH": 310, "BSTAR": 0.0001922238, "MEAN_MOTION_DOT": 3.803e-05, "MEAN_MOTION_DDOT": 0}, "tle": {"line1": "1 66742U 25276CE  25353.19717853  .00003803  00000+0  19222-3 0  9998", "line2": "2 66742  97.4417  64.8540 0001327 207.1691 152.9474 15.17660557  3104"}}, "geometry": {"type": "Point", "coordinates": [65.31645110075507, 0.924852217208642]}}, {"type": "Feature", "properties": {"norad_id": 66743, "name": "TRANSPORTER-15 CF", "group": "last-30-days", "lat": -16.23867346207012, "lon": 67.61149404283208, "alt_km": 518.3110802153869, "timestamp": "2025-12-19T18:58:40.327707+00:00", "meta": {"OBJECT_NAME": "TRANSPORTER-15 CF", "OBJECT_ID": "2025-276CF", "EPOCH": "2025-12-19T03:13:26.294304", "MEAN_MOTION": 15.17463299, "ECCENTRICITY": 4.198e-05, "INCLINATION": 97.4417, "RA_OF_ASC_NODE": 64.7848, "ARG_OF_PERICENTER": 277.9471, "MEAN_ANOMALY": 82.1715, "EPHEMERIS_TYPE": 0, "CLASSIFICATION_TYPE": "U", "NORAD_CAT_ID": 66743, "ELEMENT_SET_NO": 999, "REV_AT_EPOCH": 309, "BSTAR": 0.00025146252, "MEAN_MOTION_DOT": 4.968e-05, "MEAN_MOTION_DDOT": 0}, "tle": {"line1": "1 66743U 25276CF  25353.13433211  .00004968  00000+0  25146-3 0  9991", "line2": "2 66743  97.4417  64.7848 0000419 277.9471  82.1715 15.17463299  3091"}}, "geometry": {"type": "Point", "coordinates": [67.61149404283208, -16.23867346207012]}}, {"type": "Feature", "properties": {"norad_id": 66744, "name": "TRANSPORTER-15 CG", "group": "last-30-days", "lat": -22.21848997503155, "lon": 68.49718311564321, "alt_km": 519.1056222446405, "timestamp": "2025-12-19T18:58:40.327722+00:00", "meta": {"OBJECT_NAME": "TRANSPORTER-15 CG", "OBJECT_ID": "2025-276CG", "EPOCH": "2025-12-19T03:14:55.683744", "MEAN_MOTION": 15.17299036, "ECCENTRICITY": 0.00013887, "INCLINATION": 97.4426, "RA_OF_ASC_NODE": 64.7925, "ARG_OF_PERICENTER": 271.5698, "MEAN_ANOMALY": 88.5377, "EPHEMERIS_TYPE": 0, "CLASSIFICATION_TYPE": "U", "NORAD_CAT_ID": 66744, "ELEMENT_SET_NO": 999, "REV_AT_EPOCH": 309, "BSTAR": 0.00011257016, "MEAN_MOTION_DOT": 2.176e-05, "MEAN_MOTION_DDOT": 0}, "tle": {"line1": "1 66744U 25276CG  25353.13536671  .00002176  00000+0  11257-3 0  9993", "line2": "2 66744  97.4426  64.7925 0001388 271.5698  88.5377 15.17299036  3095"}}, "geometry": {"type": "Point", "coordinates": [68.49718311564321, -22.21848997503155]}}, {"type": "Feature", "properties": {"norad_id": 66745, "name": "TRANSPORTER-15 CH", "group": "last-30-days", "lat": -15.063327907561076, "lon": 67.45012087478679, "alt_km": 518.6388716444471, "timestamp": "2025-12-19T18:58:40.327734+00:00", "meta": {"OBJECT_NAME": "TRANSPORTER-15 CH", "OBJECT_ID": "2025-276CH", "EPOCH": "2025-12-18T03:28:42.797856", "MEAN_MOTION": 15.17410402, "ECCENTRICITY": 8.886e-05, "INCLINATION": 97.4425, "RA_OF_ASC_NODE": 63.8169, "ARG_OF_PERICENTER": 243.2573, "MEAN_ANOMALY": 116.857, "EPHEMERIS_TYPE": 0, "CLASSIFICATION_TYPE": "U", "NORAD_CAT_ID": 66745, "ELEMENT_SET_NO": 999, "REV_AT_EPOCH": 294, "BSTAR": 0.00015034976, "MEAN_MOTION_DOT": 2.939e-05, "MEAN_MOTION_DDOT": 0}, "tle": {"line1": "1 66745U 25276CH  25352.14493979  .00002939  00000+0  15035-3 0  9992", "line2": "2 66745  97.4425  63.8169 0000888 243.2573 116.8570 15.17410402  2942"}}, "geometry": {"type": "Point", "coordinates": [67.45012087478679, -15.063327907561076]}}, {"type": "Feature", "properties": {"norad_id": 66746, "name": "TRANSPORTER-15 CJ", "group": "last-30-days", "lat": -15.061036538399085, "lon": 67.44964624531089, "alt_km": 518.7149746174919, "timestamp": "2025-12-19T18:58:40.327744+00:00", "meta": {"OBJECT_NAME": "TRANSPORTER-15 CJ", "OBJECT_ID": "2025-276CJ", "EPOCH": "2025-12-19T04:48:03.204576", "MEAN_MOTION": 15.17416472, "ECCENTRICITY": 9.628e-05, "INCLINATION": 97.4422, "RA_OF_ASC_NODE": 64.8535, "ARG_OF_PERICENTER": 234.0891, "MEAN_ANOMALY": 126.0254, "EPHEMERIS_TYPE": 0, "CLASSIFICATION_TYPE": "U", "NORAD_CAT_ID": 66746, "ELEMENT_SET_NO": 999, "REV_AT_EPOCH": 310, "BSTAR": 0.00013979791, "MEAN_MOTION_DOT": 2.728e-05, "MEAN_MOTION_DDOT": 0}, "tle": {"line1": "1 66746U 25276CJ  25353.20003709  .00002728  00000+0  13980-3 0  9992", "line2": "2 66746  97.4422  64.8535 0000962 234.0891 126.0254 15.17416472  3106"}}, "geometry": {"type": "Point", "coordinates": [67.44964624531089, -15.061036538399085]}}, {"type": "Feature", "properties": {"norad_id": 66747, "name": "TRANSPORTER-15 CK", "group": "last-30-days", "lat": -8.463087013757693, "lon": 66.5520094328659, "alt_km": 517.9052505688151, "timestamp": "2025-12-19T18:58:40.327756+00:00", "meta": {"OBJECT_NAME": "TRANSPORTER-15 CK", "OBJECT_ID": "2025-276CK", "EPOCH": "2025-12-19T04:46:21.016704", "MEAN_MOTION": 15.1751112, "ECCENTRICITY": 0.00011174, "INCLINATION": 97.4424, "RA_OF_ASC_NODE": 64.8559, "ARG_OF_PERICENTER": 229.4255, "MEAN_ANOMALY": 130.6881, "EPHEMERIS_TYPE": 0, "CLASSIFICATION_TYPE": "U", "NORAD_CAT_ID": 66747, "ELEMENT_SET_NO": 999, "REV_AT_EPOCH": 310, "BSTAR": 0.00015724408, "MEAN_MOTION_DOT": 3.086e-05, "MEAN_MOTION_DDOT": 0}, "tle": {"line1": "1 66747U 25276CK  25353.19885436  .00003086  00000+0  15724-3 0  9992", "line2": "2 66747  97.4424  64.8559 0001117 229.4255 130.6881 15.17511120  3103"}}, "geometry": {"type": "Point", "coordinates": [66.5520094328659, -8.463087013757693]}}, {"type": "Feature", "properties": {"norad_id": 66748, "name": "TRANSPORTER-15 CL", "group": "last-30-days", "lat": 28.55930797407686, "lon": 61.371833078299005, "alt_km": 510.56526815171765, "timestamp": "2025-12-19T18:58:40.327766+00:00", "meta": {"OBJECT_NAME": "TRANSPORTER-15 CL", "OBJECT_ID": "2025-276CL", "EPOCH": "2025-12-19T04:36:59.478048", "MEAN_MOTION": 15.18371058, "ECCENTRICITY": 0.00017479, "INCLINATION": 97.4419, "RA_OF_ASC_NODE": 64.8629, "ARG_OF_PERICENTER": 238.0951, "MEAN_ANOMALY": 122.0113, "EPHEMERIS_TYPE": 0, "CLASSIFICATION_TYPE": "U", "NORAD_CAT_ID": 66748, "ELEMENT_SET_NO": 999, "REV_AT_EPOCH": 310, "BSTAR": 0.00071168177, "MEAN_MOTION_DOT": 0.00014576, "MEAN_MOTION_DDOT": 0}, "tle": {"line1": "1 66748U 25276CL  25353.19235507  .00014576  00000+0  71168-3 0  9991", "line2": "2 66748  97.4419  64.8629 0001747 238.0951 122.0113 15.18371058  3102"}}, "geometry": {"type": "Point", "coordinates": [61.371833078299005, 28.55930797407686]}}, {"type": "Feature", "properties": {"norad_id": 66749, "name": "TRANSPORTER-15 CM", "group": "last-30-days", "lat": 10.593980981188446, "lon": 64.0405610121945, "alt_km": 515.0240054891628, "timestamp": "2025-12-19T18:58:40.327776+00:00", "meta": {"OBJECT_NAME": "TRANSPORTER-15 CM", "OBJECT_ID": "2025-276CM", "EPOCH": "2025-12-19T04:41:27.553920", "MEAN_MOTION": 15.17826356, "ECCENTRICITY": 0.00015228, "INCLINATION": 97.4414, "RA_OF_ASC_NODE": 64.8562, "ARG_OF_PERICENTER": 204.9377, "MEAN_ANOMALY": 155.1783, "EPHEMERIS_TYPE": 0, "CLASSIFICATION_TYPE": "U", "NORAD_CAT_ID": 66749, "ELEMENT_SET_NO": 999, "REV_AT_EPOCH": 310, "BSTAR": 0.00023078731, "MEAN_MOTION_DOT": 4.602e-05, "MEAN_MOTION_DDOT": 0}, "tle": {"line1": "1 66749U 25276CM  25353.19545780  .00004602  00000+0  23079-3 0  9996", "line2": "2 66749  97.4414  64.8562 0001522 204.9377 155.1783 15.17826356  3104"}}, "geometry": {"type": "Point", "coordinates": [64.0405610121945, 10.593980981188446]}}, {"type": "Feature", "properties": {"norad_id": 66750, "name": "TRANSPORTER-15 CN", "group": "last-30-days", "lat": 25.58674676060124, "lon": 61.87085998899599, "alt_km": 511.98977424892564, "timestamp": "2025-12-19T18:58:40.327786+00:00", "meta": {"OBJECT_NAME": "TRANSPORTER-15 CN", "OBJECT_ID": "2025-276CN", "EPOCH": "2025-12-19T04:37:33.885984", "MEAN_MOTION": 15.17993728, "ECCENTRICITY": 0.0001772, "INCLINATION": 97.4453, "RA_OF_ASC_NODE": 64.8727, "ARG_OF_PERICENTER": 161.2687, "MEAN_ANOMALY": 198.8612, "EPHEMERIS_TYPE": 0, "CLASSIFICATION_TYPE": "U", "NORAD_CAT_ID": 66750, "ELEMENT_SET_NO": 999, "REV_AT_EPOCH": 310, "BSTAR": 0.00017701993, "MEAN_MOTION_DOT": 3.531e-05, "MEAN_MOTION_DDOT": 0}, "tle": {"line1": "1 66750U 25276CN  25353.19275331  .00003531  00000+0  17702-3 0  9996", "line2": "2 66750  97.4453  64.8727 0001772 161.2687 198.8612 15.17993728  3101"}}, "geometry": {"type": "Point", "coordinates": [61.87085998899599, 25.58674676060124]}}, {"type": "Feature", "properties": {"norad_id": 66751, "name": "TRANSPORTER-15 CP", "group": "last-30-days", "lat": 9.452933331359018, "lon": 64.20137178785278, "alt_km": 515.5240918117088, "timestamp": "2025-12-19T18:58:40.327799+00:00", "meta": {"OBJECT_NAME": "TRANSPORTER-15 CP", "OBJECT_ID": "2025-276CP", "EPOCH": "2025-12-19T03:06:47.688768", "MEAN_MOTION": 15.17770559, "ECCENTRICITY": 0.00020774, "INCLINATION": 97.4426, "RA_OF_ASC_NODE": 64.7987, "ARG_OF_PERICENTER": 225.7997, "MEAN_ANOMALY": 134.3067, "EPHEMERIS_TYPE": 0, "CLASSIFICATION_TYPE": "U", "NORAD_CAT_ID": 66751, "ELEMENT_SET_NO": 999, "REV_AT_EPOCH": 309, "BSTAR": 0.00020749376, "MEAN_MOTION_DOT": 4.124e-05, "MEAN_MOTION_DDOT": 0}, "tle": {"line1": "1 66751U 25276CP  25353.12971862  .00004124  00000+0  20749-3 0  9996", "line2": "2 66751  97.4426  64.7987 0002077 225.7997 134.3067 15.17770559  3090"}}, "geometry": {"type": "Point", "coordinates": [64.20137178785278, 9.452933331359018]}}]}